# From MPEC 2024-P23
C/2022 A2 (PANSTARRS),h,02/18.2028/2023,108.1864,171.6179,88.3694,1.000072,1.735233,2000,9.5,4.0
# From MPEC 2024-UQ8
C/2022 A3 (Lemmon-ATLAS),e,88.3565,325.4523,234.8827,934.3362,0.0000345,0.99603483,0.0000,09/29.0357/2023,2000,g  8.0,4.0
# From MPEC 2023-J29
P/2022 BV9 (Lemmon),e,11.9223,337.3052,16.2863,4.366543,0.1080183,0.23333721,200.3336,11/19.0/2025,2000,g  9.5,4.0
# From MPEC 2023-J29
P/2022 C1 (PANSTARRS),e,4.7634,113.0956,9.4975,7.236648,0.0506288,0.44920364,74.6357,11/19.0/2025,2000,g 12.0,4.0
# From MPEC 2023-VM5
P/2022 C2 (PANSTARRS),e,9.9839,135.2596,89.1218,6.032532,0.0665204,0.44216946,79.8864,11/19.0/2025,2000,g 12.5,4.0
# From MPEC 2023-UR6
P/2022 C3 (PANSTARRS),e,12.8253,139.0413,93.7880,9.615227,0.0330571,0.54557318,40.9174,11/19.0/2025,2000,g 11.5,4.0
# From MPEC 2022-K19
P/2022 D1 (PANSTARRS),e,44.0599,47.9393,88.6756,7.406744,0.0488948,0.54811653,75.4413,11/19.0/2025,2000,g 12.5,4.0
# From MPEC 2022-L66
P/2022 E1 (Christensen),e,19.0070,113.3409,114.8544,3.777663,0.1342361,0.22058954,169.0119,11/19.0/2025,2000,g 13.5,4.0
# From MPEC 2025-VD2
C/2022 E2 (ATLAS),h,09/14.1988/2024,137.1411,125.3960,41.7623,1.000423,3.667000,2000,5.0,4.0
# From MPC186629
C/2022 E3 (ZTF),h,01/12.4186/2023,109.1792,302.4941,145.8445,1.000006,1.115291,2000,7.5,4.0
# From MPEC 2024-PC5
C/2022 F1 (ATLAS),e,57.9898,350.6363,278.3939,342815,0.0000000,0.99998255,0.0000,08/06.3318/2022,2000,g  7.0,4.0
# From MPC185656
C/2022 H1 (PANSTARRS),e,49.8619,6.3159,246.2895,850.7332,0.0000397,0.99096222,0.0000,01/18.5201/2024,2000,g  6.0,4.0
# From MPC181181
C/2022 JK5 (PANSTARRS),e,16.8247,59.6521,247.3773,43.66334,0.0034161,0.93825371,3.1950,11/19.0/2025,2000,g 11.0,4.0
# From MPEC 2022-ST7
C/2022 K1 (Leonard),h,12/16.4195/2021,41.9770,136.3698,142.5068,1.000554,3.984006,2000,11.0,4.0
# From MPEC 2025-V36
C/2022 L2 (ATLAS),h,03/12.0880/2024,129.3097,39.2527,199.9290,1.000602,2.693917,2000,6.5,4.0
# From MPEC 2025-VD2
C/2022 N2 (PANSTARRS),h,07/31.8797/2025,5.5030,319.7373,75.4129,1.003485,3.825580,2000,6.0,4.0
# From MPEC 2024-A43
C/2022 O1 (ATLAS),h,02/15.0584/2022,71.0593,49.9075,268.9368,1.000800,7.435228,2000,6.0,4.0
# From MPEC 2023-XP6
P/2022 P2 (ZTF),e,12.4415,291.1683,137.7980,4.492582,0.1035047,0.55785448,126.9997,11/19.0/2025,2000,g 12.5,4.0
# From MPEC 2025-VD2
C/2022 QE78 (ATLAS),e,36.6484,119.8878,0.6441,166780,0.0000000,0.99996717,0.0000,09/12.1606/2025,2000,g  5.0,4.0
# From MPEC 2024-M41
P/2022 R1 (PANSTARRS),e,7.3837,175.6201,221.7039,7.130652,0.0517619,0.50030799,40.2481,11/19.0/2025,2000,g 11.5,4.0
# From MPC184410
C/2022 R3 (Leonard),h,03/05.9818/2023,43.0658,8.2643,72.9480,1.001541,5.133343,2000,9.0,4.0
# From MPEC 2022-WQ9
P/2022 R5 (PANSTARRS),e,15.2923,115.0400,240.5130,3.070383,0.1831957,0.19458819,233.2150,11/19.0/2025,2000,g 16.0,4.0
# From MPEC 2025-VD2
C/2022 R6 (PANSTARRS),h,08/26.5830/2025,57.0224,150.7825,319.9488,1.005120,6.565593,2000,5.0,4.0
# From MPEC 2023-HD1
P/2022 S1 (PANSTARRS),e,34.5639,136.0869,262.8567,6.408661,0.0607510,0.50742367,72.1854,11/19.0/2025,2000,g 13.0,4.0
# From MPC185657
C/2022 S4 (Lemmon),e,101.2085,220.1795,268.5612,1445,0.0000179,0.99808869,0.0000,07/18.7963/2024,2000,g  8.0,4.0
# From MPEC 2024-O39
C/2022 T1 (Lemmon),h,02/17.4719/2024,22.5403,236.9106,324.2918,1.000494,3.443843,2000,9.0,4.0
# From MPEC 2025-UQ3
C/2022 U1 (Leonard),h,03/26.1695/2024,128.1456,72.5299,78.6182,1.000496,4.202188,2000,8.5,4.0
# From MPC188409
C/2022 U3 (Bok),e,33.6613,272.7870,189.1443,25615,0.0000002,0.99981154,0.0000,07/28.6804/2024,2000,g  7.5,4.0
# From MPEC 2023-W26
C/2022 U4 (Bok),e,52.0576,132.9174,88.9746,2975,0.0000061,0.99902637,0.0000,08/03.6814/2023,2000,g 10.5,4.0
# From MPEC 2024-H50
C/2022 V2 (Lemmon),e,98.9052,332.8429,168.9629,36.64019,0.0044439,0.94364664,3.3249,11/19.0/2025,2000,g 12.0,4.0
# From MPEC 2023-CD7
P/2022 W1 (Rankin),e,13.4625,38.8355,17.9527,6.976729,0.0534843,0.51632894,62.0391,11/19.0/2025,2000,g 12.5,4.0
# From MPEC 2024-EF7
C/2022 W2 (ATLAS),e,63.4956,320.4283,123.3334,341.9915,0.0001558,0.99085950,0.0000,03/08.6838/2023,2000,g 11.5,4.0
# From MPEC 2023-M14
C/2022 Y1 (Hogan),e,18.8563,285.8725,174.9151,12.62436,0.0219730,0.76538831,23.8900,11/19.0/2025,2000,g 13.0,4.0
# From MPEC 2025-VD2
C/2023 A3 (Tsuchinshan-ATLAS),h,09/27.7536/2024,139.1095,21.5991,308.5318,1.000149,0.391587,2000,6.5,3.2
# From MPEC 2024-F34
P/2023 B1 (PANSTARRS),e,14.5879,78.5617,81.8131,7.068701,0.0524439,0.13121912,48.6977,11/19.0/2025,2000,g  5.5,4.0
# From MPEC 2023-F81
P/2023 B3 (PANSTARRS),e,9.1559,153.9773,240.4045,4.551384,0.1015053,0.12210944,192.9080,11/19.0/2025,2000,g 10.5,4.0
# From MPEC 2025-VD2
C/2023 C2 (ATLAS),e,48.3224,301.0059,357.4357,2011,0.0000109,0.99882215,0.0000,11/16.7434/2024,2000,g  7.0,4.0
# From MPEC 2023-N01
C/2023 F2 (SOHO),h,03/21.3653/2023,72.4108,71.4589,57.5735,1.011053,0.033436,2000,9.0,4.0
# From MPC186630
C/2023 F3 (ATLAS),h,02/02.6182/2025,145.9632,109.4675,265.5363,1.003031,5.190895,2000,6.0,4.0
# From MPEC 2025-VD2
C/2023 H1 (PANSTARRS),e,21.7834,292.6470,333.7383,744.8841,0.0000485,0.99402962,0.0000,11/28.5538/2024,2000,g  8.5,4.0
# From MPC186630
C/2023 H3 (PANSTARRS),e,2.4884,55.0861,193.2439,13.61525,0.0196185,0.61581218,12.5539,11/19.0/2025,2000,g 10.0,4.0
# From MPEC 2023-SQ0
A/2023 H4,e,76.5718,230.8267,65.0096,139.6499,0.0005972,0.98478808,0.0000,08/08.5308/2023,2000,g 18.0,2.0
# From MPEC 2025-VD2
C/2023 H5 (Lemmon),h,06/30.3499/2025,97.8546,159.4761,60.1106,1.000466,4.312661,2000,7.0,4.0
# From MPEC 2024-UA9
P/2023 JN16 (Lemmon),e,3.7013,11.8420,353.3875,2.697425,0.2224744,0.14730000,71.7878,11/19.0/2025,2000,g 14.0,4.0
# From MPEC 2024-GJ3
C/2023 K1 (ATLAS),e,137.9977,223.6956,337.4050,580.8400,0.0000704,0.99649015,0.0000,09/07.4419/2023,2000,g 13.0,4.0
# From MPEC 2023-N01
P/2023 M1 (PANSTARRS),e,12.2892,216.8600,79.6917,6.838351,0.0551159,0.58659989,38.9016,11/19.0/2025,2000,g 13.5,4.0
# From MPEC 2024-TD8
P/2023 M2 (PANSTARRS),e,19.7211,83.2555,243.6489,5.585938,0.0746552,0.36964038,63.0809,11/19.0/2025,2000,g 12.5,4.0
# From MPEC 2024-TP3
P/2023 M4 (ATLAS),e,7.5919,296.2780,320.4473,5.444365,0.0775860,0.27898933,102.0900,11/19.0/2025,2000,g  7.5,4.0
# From MPEC 2024-MB8
C/2023 P1 (Nishimura),e,132.4798,66.8140,116.2235,56.16748,0.0023414,0.99601044,0.0000,09/17.5783/2023,2000,g 10.0,4.0
# From MPC188410
C/2023 Q1 (PANSTARRS),h,12/01.1166/2024,36.6448,7.1239,84.4219,1.004860,2.576007,2000,10.0,4.0
# From MPEC 2024-N80
C/2023 Q2 (PANSTARRS),e,104.0620,92.6798,171.6734,336.9347,0.0001594,0.99047727,0.0000,06/23.8735/2024,2000,g 11.5,4.0
# From MPEC 2025-VD2
C/2023 R1 (PANSTARRS),h,04/13.4199/2026,149.3163,62.5661,144.2658,1.002398,3.570007,2000,6.0,4.0
# From MPEC 2024-L77
C/2023 R2 (PANSTARRS),h,08/12.1871/2024,30.6921,188.8819,337.3250,1.000318,0.904912,2000,10.5,4.0
# From MPC188410
C/2023 RN3 (ATLAS),e,10.3512,207.0631,130.6327,10.16503,0.0304117,0.49018855,31.4333,11/19.0/2025,2000,g  7.5,4.0
# From MPEC 2025-VD2
C/2023 RS61 (PANSTARRS),e,19.9461,347.0282,119.4720,11.89760,0.0240168,0.32796348,333.3571,11/19.0/2025,2000,g  6.8,4.0
# From MPC188410
P/2023 S1 (PANSTARRS),e,9.1576,317.2888,180.3274,3.844238,0.1307641,0.31849107,35.0125,11/19.0/2025,2000,g 11.5,4.0
# From MPEC 2024-BE0
P/2023 T1 (PANSTARRS),e,6.6123,249.5771,202.8880,4.226212,0.1134429,0.33317178,61.8356,11/19.0/2025,2000,g 14.0,4.0
# From MPC188410
C/2023 T3 (Fuls),e,27.2202,246.0024,302.8503,916.5471,0.0000355,0.99612861,0.0000,01/25.3868/2025,2000,g  8.5,4.0
# From MPEC 2025-UQ3
C/2023 TD22 (Lemmon),e,170.4892,5.5718,32.5406,48.38098,0.0029288,0.95129643,1.2556,11/19.0/2025,2000,g 12.5,4.0
# From MPEC 2025-VD2
C/2023 U1 (Fuls),e,108.1472,305.8009,255.6571,3147,0.0000056,0.99841952,0.0000,10/13.0510/2024,2000,g  8.0,4.0
# From MPC188411
C/2023 V1 (Lemmon),h,07/13.0578/2025,102.0117,15.0481,103.3180,1.000454,5.092590,2000,8.5,4.0
# From MPC184411
P/2023 V2 (PANSTARRS),e,9.8883,95.4732,330.5169,7.217379,0.0508317,0.56985846,33.2656,11/19.0/2025,2000,g 13.5,4.0
# From MPEC 2024-A43
C/2023 V3 (PANSTARRS),e,40.6587,91.2812,291.8085,12.73630,0.0216840,0.64712861,18.2184,11/19.0/2025,2000,g 11.5,4.0
# From MPEC 2025-UQ3
C/2023 V4 (Camarasa-Duszanowicz),h,05/30.4220/2024,67.1183,66.3271,50.8767,1.001241,1.121996,2000,12.0,4.0
# From MPC181182
P/2023 V6 (PANSTARRS),e,3.9761,189.5251,191.9771,5.284515,0.0811328,0.17526138,88.3144,11/19.0/2025,2000,g 11.5,4.0
# From MPEC 2024-GJ3
C/2023 X1 (Leonard),e,110.5914,136.9762,321.4754,155.4201,0.0005087,0.99387652,0.0000,10/17.8983/2023,2000,g 13.5,3.2
# From MPEC 2025-VD2
C/2023 X2 (Lemmon),h,12/28.3653/2025,76.9805,66.3009,64.7885,1.000033,5.088549,2000,8.5,3.2
# From MPEC 2024-A43
P/2023 X3 (PANSTARRS),e,4.4832,62.0156,40.9038,4.246591,0.1126272,0.28616994,64.8406,11/19.0/2025,2000,g 15.5,4.0
# From MPC184411
C/2023 X4 (Hogan),e,11.5922,28.7707,100.6131,9.927433,0.0315100,0.63142936,17.1041,11/19.0/2025,2000,g 12.0,4.0
# From MPEC 2024-DA2
C/2023 X7 (PANSTARRS),h,05/15.1888/2025,69.1210,119.2026,354.4022,1.000685,4.820427,2000,9.0,4.0
# From MPC181183
P/2023 Y2 (Gibbs),e,6.9924,79.2299,16.9278,3.747957,0.1358352,0.39222225,112.9912,11/19.0/2025,2000,g 15.5,4.0
# From MPEC 2025-VD2
C/2024 A1 (ATLAS),h,06/13.2489/2025,94.5034,112.1394,353.2330,1.001321,3.874657,2000,7.0,4.0
# From MPC182881
C/2024 A2 (ATLAS),e,119.1142,78.1651,295.4896,32.17259,0.0054010,0.94157818,3.0746,11/19.0/2025,2000,g 12.5,4.0
# From MPC188411
C/2024 B1 (Lemmon),h,10/07.7469/2024,70.9007,79.1885,66.2230,1.001132,1.633853,2000,13.0,4.0
# From MPC181183
C/2024 B2 (Lemmon),e,99.8732,294.3881,130.3211,1409,0.0000186,0.99710533,0.0000,10/05.5315/2023,2000,g 11.5,4.0
# From MPC185658
C/2024 C1 (PANSTARRS),e,14.2266,83.8102,94.5002,10.58980,0.0286004,0.58328135,12.7218,11/19.0/2025,2000,g 11.5,4.0
# From MPEC 2024-JU4
C/2024 C2 (PANSTARRS),e,27.2842,66.4496,87.6026,16.24117,0.0150584,0.44637094,3.7948,11/19.0/2025,2000,g  6.0,4.0
# From MPC184412
